NORAD_CAT_ID,OBJECT_NAME,OBJECT_TYPE,EPOCH,MEAN_MOTION,ECCENTRICITY,INCLINATION,RA_OF_ASC_NODE,ARG_OF_PERICENTER,MEAN_ANOMALY,BSTAR,MEAN_MOTION_DOT,MEAN_MOTION_DDOT,TLE_LINE0,TLE_LINE1,TLE_LINE2,SEMIMAJOR_AXIS,PERIOD,APOGEE,PERIGEE,DECAYED
49177.0,STARLINK-3103,PAYLOAD,2022-01-18 06:00:00,15.69698622,0.0003943,70.0009,132.2598,284.3635,243.2257,0.00064083,0.00076838,0.0,0 STARLINK-3103,1 49177U 21082AZ  22018.25001157  .00076838  00000-0  64083-3 0  9991,2 49177  70.0009 132.2598 0003943 284.3635 243.2257 15.69698622 21097,6737.896,91.737,362.418,357.105,0.0
49177.0,STARLINK-3103,PAYLOAD,2022-01-18 14:00:01,15.69734791,0.000408,70.0008,131.3231,289.4453,321.2558,0.00030652,0.00036521,0.0,0 STARLINK-3103,1 49177U 21082AZ  22018.58334491  .00036521  00000-0  30652-3 0  9997,2 49177  70.0008 131.3231 0004080 289.4453 321.2558 15.69734791  3670,6737.793000000002,91.735,362.407,356.909,0.0
49177.0,STARLINK-3103,PAYLOAD,2022-01-18 22:00:00,15.697882,0.0004087,70.0005,130.3859,290.1591,43.6636,-0.00017536,-0.00021131,0.0,0 STARLINK-3103,1 49177U 21082AZ  22018.91667824 -.00021131  00000-0 -17536-3 0  9992,2 49177  70.0005 130.3859 0004087 290.1591  43.6636 15.69788200 21206,6737.64,91.732,362.259,356.751,0.0
49177.0,STARLINK-3103,PAYLOAD,2022-01-19 14:00:01,15.69754755,0.0003952,70.0011,128.512,290.459,209.7278,0.00022548,0.000268,0.0,0 STARLINK-3103,1 49177U 21082AZ  22019.58334491  .00026800  00000-0  22548-3 0  9992,2 49177  70.0011 128.5120 0003952 290.4590 209.7278 15.69754755 21301,6737.736,91.734,362.263,356.93800000000016,0.0
49177.0,STARLINK-3103,PAYLOAD,2022-01-19 22:00:00,15.69796672,0.0003992,70.0007,127.575,290.9214,292.4146,-0.00078828,-0.00093472,0.0,0 STARLINK-3103,1 49177U 21082AZ  22019.91667824 -.00093472  00000-0 -78828-3 0  9991,2 49177  70.0007 127.5750 0003992 290.9214 292.4146 15.69796672  3673,6737.616,91.732,362.17,356.791,0.0
49177.0,STARLINK-3103,PAYLOAD,2022-01-20 06:00:00,15.6972897,0.0003958,70.0009,126.6383,286.2211,20.2374,0.00041972,0.00050156,0.0,0 STARLINK-3103,1 49177U 21082AZ  22020.25001157  .00050156  00000-0  41972-3 0  9991,2 49177  70.0009 126.6383 0003958 286.2211  20.2374 15.69728970 21412,6737.809,91.736,362.341,357.0080000000001,0.0
49177.0,STARLINK-3103,PAYLOAD,2022-01-20 14:00:01,15.69739215,0.0003974,70.0006,125.7014,291.4942,98.103,-0.00033676,-0.0004021,0.0,0 STARLINK-3103,1 49177U 21082AZ  22020.58334491 -.00040210  00000-0 -33676-3 0  9991,2 49177  70.0006 125.7014 0003974 291.4942  98.1030 15.69739215 21469,6737.78,91.735,362.323,356.968,0.0
49177.0,STARLINK-3103,PAYLOAD,2022-01-20 22:00:00,15.697377,0.0003914,70.0002,124.7643,292.2183,180.4664,-0.00024456,-0.00029295,0.0,0 STARLINK-3103,1 49177U 21082AZ  22020.91667824 -.00029295  00000-0 -24456-3 0  9993,2 49177  70.0002 124.7643 0003914 292.2183 180.4664 15.69737700  3670,6737.784000000002,91.735,362.287,357.01199999999994,0.0
49177.0,STARLINK-3103,PAYLOAD,2022-01-21 08:00:01,15.69750123,0.0003873,70.0007,123.5931,287.4104,19.129,-1.066e-05,-1.485e-05,0.0,0 STARLINK-3103,1 49177U 21082AZ  22021.33334491 -.00001485  00000-0 -10660-4 0  9995,2 49177  70.0007 123.5931 0003873 287.4104  19.1290 15.69750123 21582,6737.749,91.734,362.223,357.004,0.0
49177.0,STARLINK-3103,PAYLOAD,2022-01-21 14:00:01,15.69730945,0.000396,70.0006,122.8904,292.3718,346.5195,0.000335,0.00039943,0.0,0 STARLINK-3103,1 49177U 21082AZ  22021.58334491  .00039943  00000-0  33500-3 0  9997,2 49177  70.0006 122.8904 0003960 292.3718 346.5195 15.69730945  3699,6737.804,91.735,362.337,357.001,0.0
49177.0,STARLINK-3103,PAYLOAD,2022-01-21 22:00:00,15.69806994,0.0003997,70.0002,121.9534,291.5951,70.4148,-0.00088223,-0.00104495,0.0,0 STARLINK-3103,1 49177U 21082AZ  22021.91667824 -.00104495  00000-0 -88223-3 0  9992,2 49177  70.0002 121.9534 0003997 291.5951  70.4148 15.69806994  3682,6737.5859999999975,91.731,362.144,356.7580000000001,0.0
49177.0,STARLINK-3103,PAYLOAD,2022-01-22 14:00:01,15.69722622,0.000424,70.0,120.0797,291.9286,236.3613,0.00035161,0.00041932,0.0,0 STARLINK-3103,1 49177U 21082AZ  22022.58334491  .00041932  00000-0  35161-3 0  9994,2 49177  70.0000 120.0797 0004240 291.9286 236.3613 15.69722622 21773,6737.828,91.736,362.549,356.836,0.0
49177.0,STARLINK-3103,PAYLOAD,2022-01-22 22:00:00,15.69780673,0.0004216,69.9996,119.1426,291.1579,320.2484,-0.0002345,-0.00028154,0.0,0 STARLINK-3103,1 49177U 21082AZ  22022.91667824 -.00028154  00000-0 -23450-3 0  9991,2 49177  69.9996 119.1426 0004216 291.1579 320.2484 15.69780673  3670,6737.6619999999975,91.733,362.367,356.686,0.0
49177.0,STARLINK-3103,PAYLOAD,2022-01-23 14:00:01,15.6975845,0.0004166,70.0,117.2685,292.5623,125.1677,-0.00021721,-0.00026076,0.0,0 STARLINK-3103,1 49177U 21082AZ  22023.58334491 -.00026076  00000-0 -21721-3 0  9996,2 49177  70.0000 117.2685 0004166 292.5623 125.1677 15.69758450 21937,6737.725,91.734,362.397,356.783,0.0
49177.0,STARLINK-3103,PAYLOAD,2022-01-23 22:00:00,15.69737832,0.0004181,69.9996,116.3313,291.4912,209.3665,-0.00062361,-0.00073984,0.0,0 STARLINK-3103,1 49177U 21082AZ  22023.91667824 -.00073984  00000-0 -62361-3 0  9997,2 49177  69.9996 116.3313 0004181 291.4912 209.3665 15.69737832  3687,6737.784000000002,91.735,362.466,356.832,0.0
49177.0,STARLINK-3103,PAYLOAD,2022-01-24 14:00:01,15.69707595,0.0004309,69.9997,114.4578,292.7154,14.3115,0.0003694,0.00044049,0.0,0 STARLINK-3103,1 49177U 21082AZ  22024.58334491  .00044049  00000-0  36940-3 0  9994,2 49177  69.9997 114.4578 0004309 292.7154  14.3115 15.69707595  3681,6737.871,91.737,362.639,356.832,0.0
49177.0,STARLINK-3103,PAYLOAD,2022-01-24 22:00:00,15.69748682,0.0004295,69.9993,113.5206,290.7813,99.3367,-0.00016435,-0.0001979,0.0,0 STARLINK-3103,1 49177U 21082AZ  22024.91667824 -.00019790  00000-0 -16435-3 0  9994,2 49177  69.9993 113.5206 0004295 290.7813  99.3367 15.69748682 22145,6737.753000000002,91.734,362.512,356.724,0.0
49177.0,STARLINK-3103,PAYLOAD,2022-01-25 14:00:01,15.69752087,0.0004373,69.9997,111.6465,292.8437,263.541,0.00049889,0.00059788,0.0,0 STARLINK-3103,1 49177U 21082AZ  22025.58334491  .00059788  00000-0  49889-3 0  9997,2 49177  69.9997 111.6465 0004373 292.8437 263.5410 15.69752087 22246,6737.743,91.734,362.555,356.662,0.0
49177.0,STARLINK-3103,PAYLOAD,2022-01-25 22:00:00,15.69825193,0.0004194,69.9995,110.7096,291.8059,347.7377,-0.00051495,-0.00061442,0.0,0 STARLINK-3103,1 49177U 21082AZ  22025.91667824 -.00061442  00000-0 -51495-3 0  9991,2 49177  69.9995 110.7096 0004194 291.8059 347.7377 15.69825193  3700,6737.534000000002,91.73,362.225,356.5730000000001,0.0
49177.0,STARLINK-3103,PAYLOAD,2022-01-26 06:00:00,15.69770616,0.000395,70.0,109.7729,290.0333,72.6505,0.00019371,0.00022998,0.0,0 STARLINK-3103,1 49177U 21082AZ  22026.25001157  .00022998  00000-0  19371-3 0  9998,2 49177  70.0000 109.7729 0003950 290.0333  72.6505 15.69770616 22354,6737.69,91.733,362.217,356.894,0.0
49177.0,STARLINK-3103,PAYLOAD,2022-01-26 14:00:01,15.69768774,0.0004046,69.9999,108.8359,295.4624,150.3858,-0.00038039,-0.00045421,0.0,0 STARLINK-3103,1 49177U 21082AZ  22026.58334491 -.00045421  00000-0 -38039-3 0  9994,2 49177  69.9999 108.8359 0004046 295.4624 150.3858 15.69768774 22409,6737.696,91.733,362.287,356.834,0.0
49177.0,STARLINK-3103,PAYLOAD,2022-01-26 22:00:00,15.69751468,0.0003852,69.9996,107.8988,294.1881,234.7958,-0.00017564,-0.00021131,0.0,0 STARLINK-3103,1 49177U 21082AZ  22026.91667824 -.00021131  00000-0 -17564-3 0  9992,2 49177  69.9996 107.8988 0003852 294.1881 234.7958 15.69751468  3687,6737.745,91.734,362.205,357.015,0.0
49177.0,STARLINK-3103,PAYLOAD,2022-01-27 04:00:00,15.69756361,0.0003684,69.9997,107.1961,290.9317,210.3889,-0.00032392,-0.00038717,0.0,0 STARLINK-3103,1 49177U 21082AZ  22027.16667824 -.00038717  00000-0 -32392-3 0  9994,2 49177  69.9997 107.1961 0003684 290.9317 210.3889 15.69756361 22493,6737.731,91.734,362.078,357.11400000000015,0.0
49177.0,STARLINK-3103,PAYLOAD,2022-01-27 14:06:21,15.69744246,0.0003956,70.0003,106.012,294.1635,65.9147,-2.5501e-05,-3.255e-05,0.0,0 STARLINK-3103,1 49177U 21082AZ  22027.58775155 -.00003255  00000-0 -25501-4 0  9991,2 49177  70.0003 106.0120 0003956 294.1635  65.9147 15.69744246 22568,6737.766,91.735,362.296,356.965,0.0
49177.0,STARLINK-3103,PAYLOAD,2022-01-27 22:00:00,15.69733134,0.0003644,70.0001,105.0881,296.0127,122.2859,4.8652e-06,3.68e-06,0.0,0 STARLINK-3103,1 49177U 21082AZ  22027.91667824  .00000368  00000-0  48652-5 0  9994,2 49177  70.0001 105.0881 0003644 296.0127 122.2859 15.69733134 22617,6737.7980000000025,91.735,362.11800000000005,357.207,0.0
49177.0,STARLINK-3103,PAYLOAD,2022-01-28 10:00:00,15.69778265,0.0003785,70.0006,103.683,295.4427,67.5282,-0.00018808,-0.00022633,0.0,0 STARLINK-3103,1 49177U 21082AZ  22028.41667824 -.00022633  00000-0 -18808-3 0  9999,2 49177  70.0006 103.6830 0003785 295.4427  67.5282 15.69778265 22695,6737.668000000002,91.733,362.084,356.983,0.0
49177.0,STARLINK-3103,PAYLOAD,2022-01-28 12:00:00,15.69772585,0.0003849,70.0005,103.4488,296.9665,176.7949,-0.00013807,-0.0001668,0.0,0 STARLINK-3103,1 49177U 21082AZ  22028.50001157 -.00016680  00000-0 -13807-3 0  9999,2 49177  70.0005 103.4488 0003849 296.9665 176.7949 15.69772585  3660,6737.685,91.733,362.143,356.956,0.0
49177.0,STARLINK-3103,PAYLOAD,2022-01-28 22:00:00,15.69731498,0.0003963,70.0002,102.2774,293.8524,13.8572,5.0312e-06,3.88e-06,0.0,0 STARLINK-3103,1 49177U 21082AZ  22028.91667824  .00000388  00000-0  50312-5 0  9993,2 49177  70.0002 102.2774 0003963 293.8524  13.8572 15.69731498  3682,6737.802,91.735,362.337,356.997,0.0
49177.0,STARLINK-3103,PAYLOAD,2022-01-29 14:00:01,15.69771454,0.0004172,70.0005,100.4037,296.6966,177.2633,-1.1521e-05,-1.589e-05,0.0,0 STARLINK-3103,1 49177U 21082AZ  22029.58334491 -.00001589  00000-0 -11521-4 0  9992,2 49177  70.0005 100.4037 0004172 296.6966 177.2633 15.69771454 22872,6737.688,91.733,362.364,356.742,0.0
